NORAD_CAT_ID,OBJECT_NAME,OBJECT_TYPE,EPOCH,MEAN_MOTION,ECCENTRICITY,INCLINATION,RA_OF_ASC_NODE,ARG_OF_PERICENTER,MEAN_ANOMALY,BSTAR,MEAN_MOTION_DOT,MEAN_MOTION_DDOT,TLE_LINE0,TLE_LINE1,TLE_LINE2,SEMIMAJOR_AXIS,PERIOD,APOGEE,PERIGEE,DECAYED
50158.0,STARLINK-3309,PAYLOAD,2022-05-24 14:00:01,15.08841497,0.0002048,53.2176,357.1182,33.1598,137.4672,-0.00058968,-9.661e-05,0.0,0 STARLINK-3309,1 50158U 21125C   22144.58334491 -.00009661  00000-0 -58968-3 0  9993,2 50158  53.2176 357.1182 0002048  33.1598 137.4672 15.08841497  1306,6917.876,95.437,541.158,538.3240000000002,0.0
50158.0,STARLINK-3309,PAYLOAD,2022-05-24 22:00:00,15.08811441,0.0002302,53.2174,355.6237,30.9478,151.2789,0.0012532,0.00019698,0.0,0 STARLINK-3309,1 50158U 21125C   22144.91667824  .00019698  00000-0  12532-2 0  9994,2 50158  53.2174 355.6237 0002302  30.9478 151.2789 15.08811441  1302,6917.968000000003,95.439,541.425,538.24,0.0
50158.0,STARLINK-3309,PAYLOAD,2022-05-25 06:00:00,15.08854683,0.0002175,53.2169,354.1263,30.8847,162.9049,-0.0040284,-0.0006386,0.0,0 STARLINK-3309,1 50158U 21125C   22145.25001157 -.00063860  00000-0 -40284-2 0  9990,2 50158  53.2169 354.1263 0002175  30.8847 162.9049 15.08854683 24360,6917.8359999999975,95.437,541.205,538.196,0.0
50158.0,STARLINK-3309,PAYLOAD,2022-05-25 14:00:01,15.08814138,0.0002029,53.2171,352.6295,33.5814,171.7937,0.0015885,0.00025066,0.0,0 STARLINK-3309,1 50158U 21125C   22145.58334491  .00025066  00000-0  15885-2 0  9999,2 50158  53.2171 352.6295 0002029  33.5814 171.7937 15.08814138  1307,6917.959,95.439,541.2280000000002,538.4209999999998,0.0
50158.0,STARLINK-3309,PAYLOAD,2022-05-25 21:02:34,15.08818466,0.0001967,53.2185,351.3131,40.4703,319.6435,-2.8348e-05,-7.39e-06,0.0,0 STARLINK-3309,1 50158U 21125C   22145.87679070 -.00000739  00000-0 -28348-4 0  9998,2 50158  53.2185 351.3131 0001967  40.4703 319.6435 15.08818466 27617,6917.946,95.439,541.172,538.45,0.0
50158.0,STARLINK-3309,PAYLOAD,2022-05-25 22:00:00,15.08780377,0.0002398,53.2172,351.1252,31.6522,185.2851,0.005815,0.00093335,0.0,0 STARLINK-3309,1 50158U 21125C   22145.91667824  .00093335  00000-0  58150-2 0  9991,2 50158  53.2172 351.1252 0002398  31.6522 185.2851 15.08780377 24463,6918.063,95.441,541.587,538.269,0.0
50158.0,STARLINK-3309,PAYLOAD,2022-05-26 06:00:00,15.08835216,0.0002306,53.2164,349.6375,33.0901,195.3928,-0.0011907,-0.00019187,0.0,0 STARLINK-3309,1 50158U 21125C   22146.25001157 -.00019187  00000-0 -11907-2 0  9994,2 50158  53.2164 349.6375 0002306  33.0901 195.3928 15.08835216 24514,6917.895,95.438,541.355,538.165,0.0
50158.0,STARLINK-3309,PAYLOAD,2022-05-26 06:34:53,15.08821406,0.0002324,53.2186,349.5278,35.1206,324.9939,-3.2261000000000008e-06,-3.4e-06,0.0,0 STARLINK-3309,1 50158U 21125C   22146.27423380 -.00000340  00000-0 -32261-5 0  9992,2 50158  53.2186 349.5278 0002324  35.1206 324.9939 15.08821406 27678,6917.937,95.439,541.41,538.194,0.0
50158.0,STARLINK-3309,PAYLOAD,2022-05-26 20:00:01,15.08841,0.0002415,53.2161,347.0198,34.4221,124.3346,-0.00011467,-2.113e-05,0.0,0 STARLINK-3309,1 50158U 21125C   22146.83334491 -.00002113  00000-0 -11467-3 0  9991,2 50158  53.2161 347.0198 0002415  34.4221 124.3346 15.08841000 24601,6917.877,95.437,541.413,538.072,0.0
50158.0,STARLINK-3309,PAYLOAD,2022-05-26 22:00:00,15.088269699999998,0.0002473,53.2162,346.646,33.7974,217.8617,0.0019915,0.00031538,0.0,0 STARLINK-3309,1 50158U 21125C   22146.91667824  .00031538  00000-0  19915-2 0  9995,2 50158  53.2162 346.6460 0002473  33.7974 217.8617 15.08826970  1300,6917.92,95.438,541.496,538.0740000000002,0.0
50158.0,STARLINK-3309,PAYLOAD,2022-05-27 14:00:01,15.08878239,0.0002262,53.2159,343.6451,38.4414,236.4181,-0.0020248,-0.00032403,0.0,0 STARLINK-3309,1 50158U 21125C   22147.58334491 -.00032403  00000-0 -20248-2 0  9995,2 50158  53.2159 343.6451 0002262  38.4414 236.4181 15.08878239 24718,6917.764,95.435,541.193,538.064,0.0
50158.0,STARLINK-3309,PAYLOAD,2022-05-27 22:00:01,15.08829266,0.0002481,53.2159,342.1566,32.8779,253.6735,0.002112,0.00033476,0.0,0 STARLINK-3309,1 50158U 21125C   22147.91668981  .00033476  00000-0  21120-2 0  9995,2 50158  53.2159 342.1566 0002481  32.8779 253.6735 15.08829266  1306,6917.913000000001,95.438,541.495,538.062,0.0
50158.0,STARLINK-3309,PAYLOAD,2022-05-28 12:37:59,15.0884349,0.0002281,53.2181,339.4165,34.4925,325.6215,0.00017486,2.496e-05,0.0,0 STARLINK-3309,1 50158U 21125C   22148.52638171  .00002496  00000-0  17486-3 0  9990,2 50158  53.2181 339.4165 0002281  34.4925 325.6215 15.08843490 24868,6917.87,95.437,541.313,538.1569999999998,0.0
50158.0,STARLINK-3309,PAYLOAD,2022-05-28 22:00:00,15.08841964,0.0002475,53.2161,337.6671,30.4563,290.867,0.0013797,0.0002174,0.0,0 STARLINK-3309,1 50158U 21125C   22148.91667824  .00021740  00000-0  13797-2 0  9993,2 50158  53.2161 337.6671 0002475  30.4563 290.8670 15.08841964  1303,6917.874,95.437,541.452,538.0269999999998,0.0
50158.0,STARLINK-3309,PAYLOAD,2022-05-29 14:00:01,15.088427,0.0002315,53.2164,334.6724,34.0739,310.4328,-0.0023257,-0.00037116,0.0,0 STARLINK-3309,1 50158U 21125C   22149.58334491 -.00037116  00000-0 -23257-2 0  9996,2 50158  53.2164 334.6724 0002315  34.0739 310.4328 15.08842700 25023,6917.871999999999,95.437,541.339,538.136,0.0
50158.0,STARLINK-3309,PAYLOAD,2022-05-29 22:01:05,15.08837447,0.0002685,53.2182,333.1749,35.2896,324.8274,-0.00013136,-2.378e-05,0.0,0 STARLINK-3309,1 50158U 21125C   22149.91742729 -.00002378  00000-0 -13136-3 0  9998,2 50158  53.2182 333.1749 0002685  35.2896 324.8274 15.08837447 28227,6917.888000000001,95.438,541.611,537.896,0.0
50158.0,STARLINK-3309,PAYLOAD,2022-05-30 14:00:01,15.0882642,0.00023,53.2169,330.1833,32.4033,346.7814,0.0015838,0.00024999,0.0,0 STARLINK-3309,1 50158U 21125C   22150.58334491  .00024999  00000-0  15838-2 0  9997,2 50158  53.2169 330.1833 0002300  32.4033 346.7814 15.08826420 25172,6917.922,95.438,541.378,538.196,0.0
50158.0,STARLINK-3309,PAYLOAD,2022-05-30 21:51:53,15.08831686,0.0002472,53.2172,328.7129,38.8036,321.3133,-0.000161,-2.849e-05,0.0,0 STARLINK-3309,1 50158U 21125C   22150.91103723 -.00002849  00000-0 -16100-3 0  9992,2 50158  53.2172 328.7129 0002472  38.8036 321.3133 15.08831686 28378,6917.906,95.438,541.481,538.061,0.0
50158.0,STARLINK-3309,PAYLOAD,2022-05-31 04:00:00,15.08860816,0.0002392,53.2167,327.5648,30.2386,279.2231,-0.0019406,-0.00031059,0.0,0 STARLINK-3309,1 50158U 21125C   22151.16667824 -.00031059  00000-0 -19406-2 0  9993,2 50158  53.2167 327.5648 0002392  30.2386 279.2231 15.08860816 25251,6917.816999999999,95.436,541.337,538.0269999999998,0.0
50158.0,STARLINK-3309,PAYLOAD,2022-05-31 06:00:02,15.08846045,0.000232,53.2169,327.1901,31.608,10.8247,8.541899999999999e-05,1.072e-05,0.0,0 STARLINK-3309,1 50158U 21125C   22151.25002315  .00001072  00000-0  85419-4 0  9990,2 50158  53.2169 327.1901 0002320  31.6080  10.8247 15.08846045  1302,6917.861999999999,95.437,541.332,538.122,0.0
50158.0,STARLINK-3309,PAYLOAD,2022-05-31 22:00:00,15.08813649,0.0002563,53.2169,324.199,32.5604,33.0208,0.0031256,0.00049773,0.0,0 STARLINK-3309,1 50158U 21125C   22151.91667824  .00049773  00000-0  31256-2 0  9993,2 50158  53.2169 324.1990 0002563  32.5604  33.0208 15.08813649 25379,6917.9609999999975,95.439,541.599,538.053,0.0
50158.0,STARLINK-3309,PAYLOAD,2022-06-01 14:00:01,15.08869144,0.0002373,53.217,321.205,36.2159,52.5455,-0.0015572,-0.00025006,0.0,0 STARLINK-3309,1 50158U 21125C   22152.58334491 -.00025006  00000-0 -15572-2 0  9996,2 50158  53.2170 321.2050 0002373  36.2159  52.5455 15.08869144 25473,6917.791,95.436,541.298,538.015,0.0
50158.0,STARLINK-3309,PAYLOAD,2022-06-01 20:00:01,15.08845656,0.0002535,53.2169,320.0839,34.374,333.1037,0.000755,0.0001175,0.0,0 STARLINK-3309,1 50158U 21125C   22152.83334491  .00011750  00000-0  75500-3 0  9991,2 50158  53.2169 320.0839 0002535  34.3740 333.1037 15.08845656  1300,6917.863,95.437,541.482,537.974,0.0
50158.0,STARLINK-3309,PAYLOAD,2022-06-02 19:48:52,15.08780026,0.0002871,53.2161,315.6288,41.9042,318.217,0.0007312999999999,0.00011351,0.0,0 STARLINK-3309,1 50158U 21125C   22153.82560770  .00011351  00000-0  73130-3 0  9996,2 50158  53.2161 315.6288 0002871  41.9042 318.2170 15.08780026 28818,6918.064,95.441,541.915,537.943,0.0
50158.0,STARLINK-3309,PAYLOAD,2022-06-03 03:45:46,15.0884031,0.0002617,53.217,314.1412,39.6282,320.4901,5.7574e-05,6.28e-06,0.0,0 STARLINK-3309,1 50158U 21125C   22154.15679010  .00000628  00000-0  57574-4 0  9991,2 50158  53.2170 314.1412 0002617  39.6282 320.4901 15.08840310 25715,6917.879,95.438,541.555,537.934,0.0
50158.0,STARLINK-3309,PAYLOAD,2022-06-03 10:07:19,15.08844459,0.0002573,53.2153,312.9527,43.4443,316.6751,1.5384e-05,-4.4e-07,0.0,0 STARLINK-3309,1 50158U 21125C   22154.42174901 -.00000044  00000-0  15384-4 0  9996,2 50158  53.2153 312.9527 0002573  43.4443 316.6751 15.08844459 28904,6917.8669999999975,95.437,541.512,537.952,0.0
50158.0,STARLINK-3309,PAYLOAD,2022-06-03 19:39:38,15.0883455,0.0002537,53.2175,311.1674,38.6246,321.4927,-7.6234e-05,-1.501e-05,0.0,0 STARLINK-3309,1 50158U 21125C   22154.81919863 -.00001501  00000-0 -76234-4 0  9994,2 50158  53.2175 311.1674 0002537  38.6246 321.4927 15.08834550 25816,6917.897,95.438,541.5169999999998,538.007,0.0
50158.0,STARLINK-3309,PAYLOAD,2022-06-04 03:36:33,15.08861903,0.0002383,53.2178,309.6808,42.5733,317.5443,-0.00033894,-5.682e-05,0.0,0 STARLINK-3309,1 50158U 21125C   22155.15038897 -.00005682  00000-0 -33894-3 0  9999,2 50158  53.2178 309.6808 0002383  42.5733 317.5443 15.08861903 25860,6917.813,95.436,541.327,538.03,0.0
50158.0,STARLINK-3309,PAYLOAD,2022-06-04 09:58:06,15.08844846,0.0002446,53.2176,308.4914,35.2851,324.8302,-9.2626e-05,-1.763e-05,0.0,0 STARLINK-3309,1 50158U 21125C   22155.41535206 -.00001763  00000-0 -92626-4 0  9999,2 50158  53.2176 308.4914 0002446  35.2851 324.8302 15.08844846 25900,6917.866,95.437,541.423,538.038,0.0
